IRIDIUM 166             
1 43570U 18061B   24270.88998013  .00000486  00000+0  16662-3 0  9997
2 43570  86.3971 319.3220 0002218 100.3215 259.8231 14.34220044323349
IRIDIUM 158             
1 43571U 18061C   24270.50941814  .00000636  00000+0  22003-3 0  9997
2 43571  86.3972 319.4907 0002228  99.0558 261.0889 14.34220160323252
IRIDIUM 165             
1 43572U 18061D   24270.88365622  .00000662  00000+0  22930-3 0  9994
2 43572  86.3973 319.3686 0002316  94.8452 265.3008 14.34217539323336
IRIDIUM 155             
1 43573U 18061E   24270.84558102  .00000659  00000+0  22820-3 0  9992
2 43573  86.3967 319.2845 0002134  99.8507 260.2930 14.34220063323299
IRIDIUM 154             
1 43574U 18061F   24270.89632471 -.00000270  00000+0 -10353-3 0  9999
2 43574  86.3967 319.3654 0002195  90.6256 269.5191 14.34215655323355
IRIDIUM 163             
1 43575U 18061G   24270.59822062  .00000234  00000+0  76494-4 0  9991
2 43575  86.3972 319.4258 0002058  95.6002 264.5428 14.34218242323280
IRIDIUM 156             
1 43576U 18061H   24270.57284687  .00000469  00000+0  16027-3 0  9990
2 43576  86.3971 319.4431 0002376 101.7864 258.3598 14.34218867323272
IRIDIUM 164             
1 43577U 18061J   24270.41428769 -.00000029  00000+0 -17479-4 0  9992
2 43577  86.3970 319.5393 0002257  92.0553 268.0901 14.34217866323291
